{"fetchedAt":"2026-06-29T18:07:57.113Z","satellites":[{"id":"39741","name":"GPS BIIF-6  (PRN 06)","constellationId":"gps","omm":{"OBJECT_NAME":"GPS BIIF-6  (PRN 06)","OBJECT_ID":"2014-026A","EPOCH":"2026-06-29T10:14:09.752064","MEAN_MOTION":2.00560271,"ECCENTRICITY":0.0038111,"INCLINATION":56.4919,"RA_OF_ASC_NODE":331.0412,"ARG_OF_PERICENTER":326.2826,"MEAN_ANOMALY":33.4667,"EPHEMERIS_TYPE":0,"CLASSIFICATION_TYPE":"U","NORAD_CAT_ID":39741,"ELEMENT_SET_NO":999,"REV_AT_EPOCH":8878,"BSTAR":0,"MEAN_MOTION_DOT":-9.3e-7,"MEAN_MOTION_DDOT":0}},{"id":"40105","name":"GPS BIIF-7  (PRN 09)","constellationId":"gps","omm":{"OBJECT_NAME":"GPS BIIF-7  (PRN 09)","OBJECT_ID":"2014-045A","EPOCH":"2026-06-28T12:30:25.283808","MEAN_MOTION":2.00559298,"ECCENTRICITY":0.0033785,"INCLINATION":55.3602,"RA_OF_ASC_NODE":88.0134,"ARG_OF_PERICENTER":118.2932,"MEAN_ANOMALY":242.0599,"EPHEMERIS_TYPE":0,"CLASSIFICATION_TYPE":"U","NORAD_CAT_ID":40105,"ELEMENT_SET_NO":999,"REV_AT_EPOCH":8630,"BSTAR":0,"MEAN_MOTION_DOT":-5.2e-7,"MEAN_MOTION_DDOT":0}},{"id":"40294","name":"GPS BIIF-8  (PRN 03)","constellationId":"gps","omm":{"OBJECT_NAME":"GPS BIIF-8  (PRN 03)","OBJECT_ID":"2014-068A","EPOCH":"2026-06-27T21:23:54.391200","MEAN_MOTION":2.00577023,"ECCENTRICITY":0.00672701,"INCLINATION":56.9949,"RA_OF_ASC_NODE":30.5424,"ARG_OF_PERICENTER":71.0132,"MEAN_ANOMALY":289.7753,"EPHEMERIS_TYPE":0,"CLASSIFICATION_TYPE":"U","NORAD_CAT_ID":40294,"ELEMENT_SET_NO":999,"REV_AT_EPOCH":8542,"BSTAR":0,"MEAN_MOTION_DOT":-7.4e-7,"MEAN_MOTION_DDOT":0}},{"id":"40534","name":"GPS BIIF-9  (PRN 26)","constellationId":"gps","omm":{"OBJECT_NAME":"GPS BIIF-9  (PRN 26)","OBJECT_ID":"2015-013A","EPOCH":"2026-06-28T12:43:45.333984","MEAN_MOTION":2.00550799,"ECCENTRICITY":0.01098251,"INCLINATION":53.1672,"RA_OF_ASC_NODE":203.7083,"ARG_OF_PERICENTER":40.2188,"MEAN_ANOMALY":320.6559,"EPHEMERIS_TYPE":0,"CLASSIFICATION_TYPE":"U","NORAD_CAT_ID":40534,"ELEMENT_SET_NO":999,"REV_AT_EPOCH":8205,"BSTAR":0,"MEAN_MOTION_DOT":7.9e-7,"MEAN_MOTION_DDOT":0}},{"id":"40730","name":"GPS BIIF-10 (PRN 08)","constellationId":"gps","omm":{"OBJECT_NAME":"GPS BIIF-10 (PRN 08)","OBJECT_ID":"2015-033A","EPOCH":"2026-06-28T16:31:50.568672","MEAN_MOTION":2.00555814,"ECCENTRICITY":0.01151416,"INCLINATION":53.9734,"RA_OF_ASC_NODE":266.6121,"ARG_OF_PERICENTER":30.2336,"MEAN_ANOMALY":330.4845,"EPHEMERIS_TYPE":0,"CLASSIFICATION_TYPE":"U","NORAD_CAT_ID":40730,"ELEMENT_SET_NO":999,"REV_AT_EPOCH":8022,"BSTAR":0,"MEAN_MOTION_DOT":-1.4e-7,"MEAN_MOTION_DDOT":0}},{"id":"41019","name":"GPS BIIF-11 (PRN 10)","constellationId":"gps","omm":{"OBJECT_NAME":"GPS BIIF-11 (PRN 10)","OBJECT_ID":"2015-062A","EPOCH":"2026-06-26T18:00:06.016032","MEAN_MOTION":2.00567519,"ECCENTRICITY":0.01121888,"INCLINATION":56.9659,"RA_OF_ASC_NODE":30.4428,"ARG_OF_PERICENTER":230.971,"MEAN_ANOMALY":128.0791,"EPHEMERIS_TYPE":0,"CLASSIFICATION_TYPE":"U","NORAD_CAT_ID":41019,"ELEMENT_SET_NO":999,"REV_AT_EPOCH":7802,"BSTAR":0,"MEAN_MOTION_DOT":-8e-7,"MEAN_MOTION_DDOT":0}},{"id":"41328","name":"GPS BIIF-12 (PRN 32)","constellationId":"gps","omm":{"OBJECT_NAME":"GPS BIIF-12 (PRN 32)","OBJECT_ID":"2016-007A","EPOCH":"2026-06-28T08:06:03.176928","MEAN_MOTION":2.00551379,"ECCENTRICITY":0.00956049,"INCLINATION":55.5304,"RA_OF_ASC_NODE":89.0177,"ARG_OF_PERICENTER":247.1405,"MEAN_ANOMALY":111.8582,"EPHEMERIS_TYPE":0,"CLASSIFICATION_TYPE":"U","NORAD_CAT_ID":41328,"ELEMENT_SET_NO":999,"REV_AT_EPOCH":7606,"BSTAR":0,"MEAN_MOTION_DOT":-5.3e-7,"MEAN_MOTION_DDOT":0}},{"id":"43873","name":"GPS BIII-1  (PRN 04)","constellationId":"gps","omm":{"OBJECT_NAME":"GPS BIII-1  (PRN 04)","OBJECT_ID":"2018-109A","EPOCH":"2026-06-29T00:00:02.927232","MEAN_MOTION":2.00562422,"ECCENTRICITY":0.00384994,"INCLINATION":55.6885,"RA_OF_ASC_NODE":91.7208,"ARG_OF_PERICENTER":197.684,"MEAN_ANOMALY":175.4799,"EPHEMERIS_TYPE":0,"CLASSIFICATION_TYPE":"U","NORAD_CAT_ID":43873,"ELEMENT_SET_NO":999,"REV_AT_EPOCH":5531,"BSTAR":0,"MEAN_MOTION_DOT":-4.4e-7,"MEAN_MOTION_DDOT":0}},{"id":"44506","name":"GPS BIII-2  (PRN 18)","constellationId":"gps","omm":{"OBJECT_NAME":"GPS BIII-2  (PRN 18)","OBJECT_ID":"2019-056A","EPOCH":"2026-06-29T08:40:26.031360","MEAN_MOTION":2.0057021,"ECCENTRICITY":0.0062613,"INCLINATION":55.6308,"RA_OF_ASC_NODE":330.6592,"ARG_OF_PERICENTER":197.7564,"MEAN_ANOMALY":340.3084,"EPHEMERIS_TYPE":0,"CLASSIFICATION_TYPE":"U","NORAD_CAT_ID":44506,"ELEMENT_SET_NO":999,"REV_AT_EPOCH":5031,"BSTAR":0,"MEAN_MOTION_DOT":-9.5e-7,"MEAN_MOTION_DDOT":0}},{"id":"45854","name":"GPS BIII-3  (PRN 23)","constellationId":"gps","omm":{"OBJECT_NAME":"GPS BIII-3  (PRN 23)","OBJECT_ID":"2020-041A","EPOCH":"2026-06-29T08:43:22.029024","MEAN_MOTION":2.00558844,"ECCENTRICITY":0.0065346,"INCLINATION":56.6709,"RA_OF_ASC_NODE":28.4721,"ARG_OF_PERICENTER":204.0154,"MEAN_ANOMALY":273.4058,"EPHEMERIS_TYPE":0,"CLASSIFICATION_TYPE":"U","NORAD_CAT_ID":45854,"ELEMENT_SET_NO":999,"REV_AT_EPOCH":4428,"BSTAR":0,"MEAN_MOTION_DOT":-6.9e-7,"MEAN_MOTION_DDOT":0}},{"id":"46826","name":"GPS BIII-4  (PRN 14)","constellationId":"gps","omm":{"OBJECT_NAME":"GPS BIII-4  (PRN 14)","OBJECT_ID":"2020-078A","EPOCH":"2026-06-29T05:44:38.653728","MEAN_MOTION":2.00565188,"ECCENTRICITY":0.0073938,"INCLINATION":53.9788,"RA_OF_ASC_NODE":210.2896,"ARG_OF_PERICENTER":207.5308,"MEAN_ANOMALY":157.0262,"EPHEMERIS_TYPE":0,"CLASSIFICATION_TYPE":"U","NORAD_CAT_ID":46826,"ELEMENT_SET_NO":999,"REV_AT_EPOCH":4175,"BSTAR":0,"MEAN_MOTION_DOT":7.5e-7,"MEAN_MOTION_DDOT":0}},{"id":"48859","name":"GPS BIII-5  (PRN 11)","constellationId":"gps","omm":{"OBJECT_NAME":"GPS BIII-5  (PRN 11)","OBJECT_ID":"2021-054A","EPOCH":"2026-06-28T17:29:34.169280","MEAN_MOTION":2.00568605,"ECCENTRICITY":0.0025783,"INCLINATION":55.1686,"RA_OF_ASC_NODE":331.9958,"ARG_OF_PERICENTER":228.3278,"MEAN_ANOMALY":313.9526,"EPHEMERIS_TYPE":0,"CLASSIFICATION_TYPE":"U","NORAD_CAT_ID":48859,"ELEMENT_SET_NO":999,"REV_AT_EPOCH":3698,"BSTAR":0,"MEAN_MOTION_DOT":-9.8e-7,"MEAN_MOTION_DDOT":0}},{"id":"55268","name":"GPS BIII-6  (PRN 28)","constellationId":"gps","omm":{"OBJECT_NAME":"GPS BIII-6  (PRN 28)","OBJECT_ID":"2023-009A","EPOCH":"2026-06-27T22:18:56.418624","MEAN_MOTION":2.0057096,"ECCENTRICITY":0.00062636,"INCLINATION":55.1241,"RA_OF_ASC_NODE":148.0967,"ARG_OF_PERICENTER":317.3274,"MEAN_ANOMALY":46.4275,"EPHEMERIS_TYPE":0,"CLASSIFICATION_TYPE":"U","NORAD_CAT_ID":55268,"ELEMENT_SET_NO":999,"REV_AT_EPOCH":2546,"BSTAR":0,"MEAN_MOTION_DOT":2.7e-7,"MEAN_MOTION_DDOT":0}},{"id":"62339","name":"GPS BIII-7  (PRN 01)","constellationId":"gps","omm":{"OBJECT_NAME":"GPS BIII-7  (PRN 01)","OBJECT_ID":"2024-242A","EPOCH":"2026-06-26T01:37:41.317248","MEAN_MOTION":2.00572026,"ECCENTRICITY":0.00176661,"INCLINATION":54.8454,"RA_OF_ASC_NODE":333.821,"ARG_OF_PERICENTER":4.5395,"MEAN_ANOMALY":177.0108,"EPHEMERIS_TYPE":0,"CLASSIFICATION_TYPE":"U","NORAD_CAT_ID":62339,"ELEMENT_SET_NO":999,"REV_AT_EPOCH":1143,"BSTAR":0,"MEAN_MOTION_DOT":-0.00000106,"MEAN_MOTION_DDOT":0}},{"id":"64202","name":"GPS BIII-8  (PRN 21)","constellationId":"gps","omm":{"OBJECT_NAME":"GPS BIII-8  (PRN 21)","OBJECT_ID":"2025-116A","EPOCH":"2026-06-28T19:20:57.795936","MEAN_MOTION":2.00575378,"ECCENTRICITY":0.00082178,"INCLINATION":55.2421,"RA_OF_ASC_NODE":30.6628,"ARG_OF_PERICENTER":343.019,"MEAN_ANOMALY":198.8516,"EPHEMERIS_TYPE":0,"CLASSIFICATION_TYPE":"U","NORAD_CAT_ID":64202,"ELEMENT_SET_NO":999,"REV_AT_EPOCH":810,"BSTAR":0,"MEAN_MOTION_DOT":-7.4e-7,"MEAN_MOTION_DDOT":0}}]}